start=new Date('2021-08-30T00:00:00.000Z').valueOf();
sats=[{"OBJECT_NAME":"STARLINK-2646","GP_ID":"183701759","TLE_LINE2":"2 48642  53.0564 341.8801 0000966 106.5044 253.6051 15.06394143 14570","EPOCH":"2021-08-29T18:19:18.720768","TLE_LINE1":"1 48642U 21044E   21241.76341112 -.00000803  00000-0 -35035-4 0  9993","EPHEMERIS_TYPE":"0","MEAN_ANOMALY":"253.6051","MEAN_MOTION_DOT":"-0.00000803","OBJECT_TYPE":"PAYLOAD","CLASSIFICATION_TYPE":"U","CENTER_NAME":"EARTH","ECCENTRICITY":"0.00009660","REV_AT_EPOCH":"1457","MEAN_ELEMENT_THEORY":"SGP4","LAUNCH_DATE":"2021-05-26","SEMIMAJOR_AXIS":"6925.367","REF_FRAME":"TEME","PERIAPSIS":"546.563","NORAD_CAT_ID":"48642","TIME_SYSTEM":"UTC","APOAPSIS":"547.900","RCS_SIZE":"LARGE","INCLINATION":"53.0564","ARG_OF_PERICENTER":"106.5044","DECAY_DATE":null,"BSTAR":"-0.00003503500000","FILE":"3105271","MEAN_MOTION_DDOT":"0.0000000000000","MEAN_MOTION":"15.06394143","COUNTRY_CODE":"US","PERIOD":"95.593","SITE":"AFETR","ELEMENT_SET_NO":"999","RA_OF_ASC_NODE":"341.8801","OBJECT_ID":"2021-044E"},{"OBJECT_TYPE":"PAYLOAD","CENTER_NAME":"EARTH","CLASSIFICATION_TYPE":"U","ECCENTRICITY":"0.00009630","MEAN_ELEMENT_THEORY":"SGP4","REV_AT_EPOCH":"1457","SEMIMAJOR_AXIS":"6925.362","LAUNCH_DATE":"2021-05-26","REF_FRAME":"TEME","NORAD_CAT_ID":"48643","TIME_SYSTEM":"UTC","PERIAPSIS":"546.560","OBJECT_NAME":"STARLINK-2704","TLE_LINE2":"2 48643  53.0563 341.9594 0000963 131.2708 228.8364 15.06395584 14570","EPOCH":"2021-08-29T17:54:07.743744","GP_ID":"183701666","TLE_LINE1":"1 48643U 21044F   21241.74592296  .00000361  00000-0  43153-4 0  9990","EPHEMERIS_TYPE":"0","MEAN_MOTION_DOT":"0.00000361","MEAN_ANOMALY":"228.8364","MEAN_MOTION":"15.06395584","COUNTRY_CODE":"US","PERIOD":"95.592","SITE":"AFETR","ELEMENT_SET_NO":"999","OBJECT_ID":"2021-044F","RA_OF_ASC_NODE":"341.9594","RCS_SIZE":"LARGE","APOAPSIS":"547.894","INCLINATION":"53.0563","ARG_OF_PERICENTER":"131.2708","BSTAR":"0.00004315300000","DECAY_DATE":null,"FILE":"3105271","MEAN_MOTION_DDOT":"0.0000000000000"},{"CENTER_NAME":"EARTH","CLASSIFICATION_TYPE":"U","OBJECT_TYPE":"PAYLOAD","ECCENTRICITY":"0.00011760","SEMIMAJOR_AXIS":"6925.319","LAUNCH_DATE":"2021-05-26","MEAN_ELEMENT_THEORY":"SGP4","REV_AT_EPOCH":"1458","NORAD_CAT_ID":"48644","TIME_SYSTEM":"UTC","PERIAPSIS":"546.369","REF_FRAME":"TEME","OBJECT_NAME":"STARLINK-2695","TLE_LINE2":"2 48644  53.0547 341.6748 0001176 122.1105 237.9998 15.06409789 14586","EPOCH":"2021-08-29T19:24:21.639456","GP_ID":"183701821","TLE_LINE1":"1 48644U 21044G   21241.80858379  .00001818  00000-0  14090-3 0  9990","MEAN_MOTION_DOT":"0.00001818","MEAN_ANOMALY":"237.9998","EPHEMERIS_TYPE":"0","PERIOD":"95.592","MEAN_MOTION":"15.06409789","COUNTRY_CODE":"US","SITE":"AFETR","RA_OF_ASC_NODE":"341.6748","OBJECT_ID":"2021-044G","ELEMENT_SET_NO":"999","INCLINATION":"53.0547","RCS_SIZE":"LARGE","APOAPSIS":"547.998","ARG_OF_PERICENTER":"122.1105","FILE":"3105271","BSTAR":"0.00014090000000","DECAY_DATE":null,"MEAN_MOTION_DDOT":"0.0000000000000"},{"MEAN_MOTION_DOT":"0.00003965","MEAN_ANOMALY":"227.8238","EPHEMERIS_TYPE":"0","TLE_LINE1":"1 48645U 21044H   21241.80489744  .00003965  00000-0  28480-3 0  9990","TLE_LINE2":"2 48645  53.0550 341.6934 0001104 132.2844 227.8238 15.06414319 14581","GP_ID":"183701573","EPOCH":"2021-08-29T19:19:03.138816","OBJECT_NAME":"STARLINK-2733","PERIAPSIS":"546.405","NORAD_CAT_ID":"48645","TIME_SYSTEM":"UTC","REF_FRAME":"TEME","LAUNCH_DATE":"2021-05-26","SEMIMAJOR_AXIS":"6925.305","MEAN_ELEMENT_THEORY":"SGP4","REV_AT_EPOCH":"1458","ECCENTRICITY":"0.00011040","CLASSIFICATION_TYPE":"U","CENTER_NAME":"EARTH","OBJECT_TYPE":"PAYLOAD","MEAN_MOTION_DDOT":"0.0000000000000","FILE":"3105271","DECAY_DATE":null,"BSTAR":"0.00028480000000","ARG_OF_PERICENTER":"132.2844","INCLINATION":"53.0550","APOAPSIS":"547.934","RCS_SIZE":"LARGE","RA_OF_ASC_NODE":"341.6934","OBJECT_ID":"2021-044H","ELEMENT_SET_NO":"999","SITE":"AFETR","PERIOD":"95.591","COUNTRY_CODE":"US","MEAN_MOTION":"15.06414319"},{"REV_AT_EPOCH":"1458","MEAN_ELEMENT_THEORY":"SGP4","LAUNCH_DATE":"2021-05-26","SEMIMAJOR_AXIS":"6925.344","REF_FRAME":"TEME","PERIAPSIS":"546.520","NORAD_CAT_ID":"48646","TIME_SYSTEM":"UTC","OBJECT_TYPE":"PAYLOAD","CLASSIFICATION_TYPE":"U","CENTER_NAME":"EARTH","ECCENTRICITY":"0.00009950","TLE_LINE1":"1 48646U 21044J   21241.80120954  .00001179  00000-0  98001-4 0  9998","EPHEMERIS_TYPE":"0","MEAN_ANOMALY":"220.9349","MEAN_MOTION_DOT":"0.00001179","OBJECT_NAME":"STARLINK-2732","EPOCH":"2021-08-29T19:13:44.504256","TLE_LINE2":"2 48646  53.0559 341.7106 0000995 139.1714 220.9349 15.06401473 14586","GP_ID":"183702101","ELEMENT_SET_NO":"999","RA_OF_ASC_NODE":"341.7106","OBJECT_ID":"2021-044J","MEAN_MOTION":"15.06401473","COUNTRY_CODE":"US","PERIOD":"95.592","SITE":"AFETR","DECAY_DATE":null,"BSTAR":"0.00009800100000","FILE":"3105271","MEAN_MOTION_DDOT":"0.0000000000000","APOAPSIS":"547.898","RCS_SIZE":"LARGE","INCLINATION":"53.0559","ARG_OF_PERICENTER":"139.1714"},{"OBJECT_NAME":"STARLINK-2691","TLE_LINE2":"2 48647  53.0557 341.7311 0000997 146.5309 213.5743 15.06400568 14587","EPOCH":"2021-08-29T19:08:26.215296","GP_ID":"183702008","TLE_LINE1":"1 48647U 21044K   21241.79752564  .00000285  00000-0  37994-4 0  9996","MEAN_MOTION_DOT":"0.00000285","MEAN_ANOMALY":"213.5743","EPHEMERIS_TYPE":"0","CLASSIFICATION_TYPE":"U","CENTER_NAME":"EARTH","OBJECT_TYPE":"PAYLOAD","ECCENTRICITY":"0.00009970","LAUNCH_DATE":"2021-05-26","SEMIMAJOR_AXIS":"6925.347","MEAN_ELEMENT_THEORY":"SGP4","REV_AT_EPOCH":"1458","PERIAPSIS":"546.521","NORAD_CAT_ID":"48647","TIME_SYSTEM":"UTC","REF_FRAME":"TEME","INCLINATION":"53.0557","RCS_SIZE":"LARGE","APOAPSIS":"547.902","ARG_OF_PERICENTER":"146.5309","FILE":"3105271","DECAY_DATE":null,"BSTAR":"0.00003799400000","MEAN_MOTION_DDOT":"0.0000000000000","PERIOD":"95.592","COUNTRY_CODE":"US","MEAN_MOTION":"15.06400568","SITE":"AFETR","RA_OF_ASC_NODE":"341.7311","OBJECT_ID":"2021-044K","ELEMENT_SET_NO":"999"},{"TLE_LINE1":"1 48648U 21044L   21241.79657773  .00001956  00000-0  15014-3 0  9997","EPHEMERIS_TYPE":"0","MEAN_ANOMALY":"233.4470","MEAN_MOTION_DOT":"0.00001956","OBJECT_NAME":"STARLINK-2521","TLE_LINE2":"2 48648  53.0560 341.7316 0001156 126.6625 233.4470 15.06406550 14580","EPOCH":"2021-08-29T19:07:04.315872","GP_ID":"183701480","REV_AT_EPOCH":"1458","MEAN_ELEMENT_THEORY":"SGP4","LAUNCH_DATE":"2021-05-26","SEMIMAJOR_AXIS":"6925.328","REF_FRAME":"TEME","PERIAPSIS":"546.393","NORAD_CAT_ID":"48648","TIME_SYSTEM":"UTC","OBJECT_TYPE":"PAYLOAD","CLASSIFICATION_TYPE":"U","CENTER_NAME":"EARTH","ECCENTRICITY":"0.00011560","DECAY_DATE":null,"BSTAR":"0.00015014000000","FILE":"3105271","MEAN_MOTION_DDOT":"0.0000000000000","APOAPSIS":"547.994","RCS_SIZE":"LARGE","INCLINATION":"53.0560","ARG_OF_PERICENTER":"126.6625","ELEMENT_SET_NO":"999","OBJECT_ID":"2021-044L","RA_OF_ASC_NODE":"341.7316","MEAN_MOTION":"15.06406550","COUNTRY_CODE":"US","PERIOD":"95.592","SITE":"AFETR"},{"ARG_OF_PERICENTER":"127.5853","INCLINATION":"53.0509","APOAPSIS":"547.991","RCS_SIZE":"LARGE","MEAN_MOTION_DDOT":"0.0000000000000","FILE":"3105271","DECAY_DATE":null,"BSTAR":"0.00011534000000","SITE":"AFETR","PERIOD":"95.592","MEAN_MOTION":"15.06404045","COUNTRY_CODE":"US","RA_OF_ASC_NODE":"341.7841","OBJECT_ID":"2021-044M","ELEMENT_SET_NO":"999","GP_ID":"183701915","TLE_LINE2":"2 48649  53.0509 341.7841 0001140 127.5853 232.5240 15.06404045 14574","EPOCH":"2021-08-29T19:03:07.409664","OBJECT_NAME":"STARLINK-2673","MEAN_ANOMALY":"232.5240","MEAN_MOTION_DOT":"0.00001437","EPHEMERIS_TYPE":"0","TLE_LINE1":"1 48649U 21044M   21241.79383576  .00001437  00000-0  11534-3 0  9992","ECCENTRICITY":"0.00011400","CLASSIFICATION_TYPE":"U","CENTER_NAME":"EARTH","OBJECT_TYPE":"PAYLOAD","PERIAPSIS":"546.412","TIME_SYSTEM":"UTC","NORAD_CAT_ID":"48649","REF_FRAME":"TEME","LAUNCH_DATE":"2021-05-26","SEMIMAJOR_AXIS":"6925.336","REV_AT_EPOCH":"1457","MEAN_ELEMENT_THEORY":"SGP4"},{"FILE":"3105271","BSTAR":"0.00006828600000","DECAY_DATE":null,"MEAN_MOTION_DDOT":"0.0000000000000","INCLINATION":"53.0534","RCS_SIZE":"LARGE","APOAPSIS":"547.998","ARG_OF_PERICENTER":"153.6994","OBJECT_ID":"2021-044N","RA_OF_ASC_NODE":"341.7686","ELEMENT_SET_NO":"999","PERIOD":"95.592","MEAN_MOTION":"15.06400157","COUNTRY_CODE":"US","SITE":"AFETR","TLE_LINE1":"1 48650U 21044N   21241.79015102  .00000736  00000-0  68286-4 0  9999","MEAN_MOTION_DOT":"0.00000736","MEAN_ANOMALY":"206.4053","EPHEMERIS_TYPE":"0","OBJECT_NAME":"STARLINK-2672","TLE_LINE2":"2 48650  53.0534 341.7686 0001134 153.6994 206.4053 15.06400157 14572","GP_ID":"183701760","EPOCH":"2021-08-29T18:57:49.048128","SEMIMAJOR_AXIS":"6925.348","LAUNCH_DATE":"2021-05-26","REV_AT_EPOCH":"1457","MEAN_ELEMENT_THEORY":"SGP4","NORAD_CAT_ID":"48650","TIME_SYSTEM":"UTC","PERIAPSIS":"546.428","REF_FRAME":"TEME","CENTER_NAME":"EARTH","CLASSIFICATION_TYPE":"U","OBJECT_TYPE":"PAYLOAD","ECCENTRICITY":"0.00011340"},{"MEAN_MOTION":"15.06400073","COUNTRY_CODE":"US","PERIOD":"95.592","SITE":"AFETR","ELEMENT_SET_NO":"999","RA_OF_ASC_NODE":"341.7809","OBJECT_ID":"2021-044P","APOAPSIS":"548.084","RCS_SIZE":"LARGE","INCLINATION":"53.0556","ARG_OF_PERICENTER":"146.4353","DECAY_DATE":null,"BSTAR":"0.00001273200000","FILE":"3105271","MEAN_MOTION_DDOT":"0.0000000000000","OBJECT_TYPE":"PAYLOAD","CLASSIFICATION_TYPE":"U","CENTER_NAME":"EARTH","ECCENTRICITY":"0.00012570","MEAN_ELEMENT_THEORY":"SGP4","REV_AT_EPOCH":"1457","LAUNCH_DATE":"2021-05-26","SEMIMAJOR_AXIS":"6925.348","REF_FRAME":"TEME","PERIAPSIS":"546.343","NORAD_CAT_ID":"48651","TIME_SYSTEM":"UTC","OBJECT_NAME":"STARLINK-2731","GP_ID":"183701667","TLE_LINE2":"2 48651  53.0556 341.7809 0001257 146.4353 213.6716 15.06400073 14572","EPOCH":"2021-08-29T18:52:30.709056","TLE_LINE1":"1 48651U 21044P   21241.78646654 -.00000092  00000-0  12732-4 0  9992","EPHEMERIS_TYPE":"0","MEAN_ANOMALY":"213.6716","MEAN_MOTION_DOT":"-0.00000092"}];
